FLOCK 4G-25             
1 62646U 25009AP  26189.18902897  .00006915  00000+0  24141-3 0  9995
2 62646  97.4008 271.1795 0001765 180.3569 179.7671 15.29909217 82134
FLOCK 4G-23             
1 62647U 25009AQ  26188.72927532  .00027230  00000+0  81926-3 0  9995
2 62647  97.3923 270.4042 0002752 187.1924 172.9279 15.34341441 82071
FLOCK 4G-34             
1 62650U 25009AT  26188.79988235  .00006516  00000+0  22926-3 0  9992
2 62650  97.3956 270.2863 0001665 181.3894 178.7342 15.29676479 82064
FLOCK 4G-21             
1 62651U 25009AU  26188.47211140  .00026346  00000+0  84029-3 0  9997
2 62651  97.3986 270.9260 0002412 213.2925 146.8165 15.32490105 82060
FLOCK 4G-31             
1 62652U 25009AV  26189.48307975  .00006999  00000+0  24745-3 0  9993
2 62652  97.3963 270.9395 0001280 169.0022 191.1246 15.29491863 82165
FLOCK 4G-4              
1 62659U 25009BC  26189.46629891  .00023752  00000+0  77392-3 0  9994
2 62659  97.3942 270.7116 0004107 211.3503 148.7495 15.31819968139760
FLOCK 4G-6              
1 62660U 25009BD  26189.47400462  .00005549  00000+0  19436-3 0  9997
2 62660  97.3935 270.7805 0002279 229.8803 130.2238 15.29891671139752
FLOCK 4G-2              
1 62661U 25009BE  26189.53451637  .00007550  00000+0  26066-3 0  9996
2 62661  97.4003 271.4734 0003115 228.6652 131.4321 15.30238576139799
FLOCK 4G-5              
1 62663U 25009BG  26189.53196686  .00006351  00000+0  21580-3 0  9992
2 62663  97.4021 271.8635 0002841 204.5887 155.5219 15.30825212 82208
FLOCK 4G-1              
1 62666U 25009BK  26188.73402794  .00006871  00000+0  23859-3 0  9994
2 62666  97.4015 270.6552 0003286 229.0976 130.9980 15.30085707 82056
FLOCK 4G-14             
1 62667U 25009BL  26189.22084385  .00006500  00000+0  22897-3 0  9992
2 62667  97.4017 270.9413 0003450 221.1323 138.9657 15.29639869 82118
FLOCK 4G-10             
1 62670U 25009BP  26189.49386924  .00007595  00000+0  26619-3 0  9990
2 62670  97.3917 270.5187 0003100 242.4476 117.6450 15.29742756139793
FLOCK 4G-36             
1 62675U 25009BU  26189.16120583  .00006858  00000+0  24088-3 0  9995
2 62675  97.4006 270.8039 0003578 228.9613 131.1319 15.29710286 82108
FLOCK 4G-15             
1 62678U 25009BX  26189.49560390  .00008185  00000+0  28609-3 0  9996
2 62678  97.4011 271.2783 0003896 223.2943 136.7991 15.29806850139805
FLOCK 4G-30             
1 62679U 25009BY  26189.45609051  .00028488  00000+0  87727-3 0  9995
2 62679  97.3912 270.7302 0003722 218.7502 141.3474 15.33591036139804
FLOCK 4G-18             
1 62680U 25009BZ  26189.46286105  .00025141  00000+0  81749-3 0  9990
2 62680  97.4005 271.1416 0005480 233.8999 126.1735 15.31869046139798
