{"fetched_at":"2026-07-08T17:59:26.812Z","source":"https://celestrak.org/NORAD/elements/gp.php?GROUP=planet&FORMAT=JSON","constellation":"superdove","records":[{"OBJECT_NAME":"FLOCK 4G-25","OBJECT_ID":"2025-009AP","EPOCH":"2026-07-08T04:32:12.103008","CLASSIFICATION_TYPE":"U","MEAN_MOTION":15.29909217,"ECCENTRICITY":0.0001765,"INCLINATION":97.4008,"RA_OF_ASC_NODE":271.1795,"ARG_OF_PERICENTER":180.3569,"MEAN_ANOMALY":179.7671,"EPHEMERIS_TYPE":0,"NORAD_CAT_ID":62646,"ELEMENT_SET_NO":999,"REV_AT_EPOCH":8213,"BSTAR":0.00024141,"MEAN_MOTION_DOT":0.00006915,"MEAN_MOTION_DDOT":0},{"OBJECT_NAME":"FLOCK 4G-23","OBJECT_ID":"2025-009AQ","EPOCH":"2026-07-07T17:30:09.387648","CLASSIFICATION_TYPE":"U","MEAN_MOTION":15.34341441,"ECCENTRICITY":0.0002752,"INCLINATION":97.3923,"RA_OF_ASC_NODE":270.4042,"ARG_OF_PERICENTER":187.1924,"MEAN_ANOMALY":172.9279,"EPHEMERIS_TYPE":0,"NORAD_CAT_ID":62647,"ELEMENT_SET_NO":999,"REV_AT_EPOCH":8207,"BSTAR":0.00081926,"MEAN_MOTION_DOT":0.0002723,"MEAN_MOTION_DDOT":0},{"OBJECT_NAME":"FLOCK 4G-34","OBJECT_ID":"2025-009AT","EPOCH":"2026-07-07T19:11:49.835040","CLASSIFICATION_TYPE":"U","MEAN_MOTION":15.29676479,"ECCENTRICITY":0.0001665,"INCLINATION":97.3956,"RA_OF_ASC_NODE":270.2863,"ARG_OF_PERICENTER":181.3894,"MEAN_ANOMALY":178.7342,"EPHEMERIS_TYPE":0,"NORAD_CAT_ID":62650,"ELEMENT_SET_NO":999,"REV_AT_EPOCH":8206,"BSTAR":0.00022926,"MEAN_MOTION_DOT":0.00006516,"MEAN_MOTION_DDOT":0},{"OBJECT_NAME":"FLOCK 4G-21","OBJECT_ID":"2025-009AU","EPOCH":"2026-07-07T11:19:50.424960","CLASSIFICATION_TYPE":"U","MEAN_MOTION":15.32490105,"ECCENTRICITY":0.00024128,"INCLINATION":97.3986,"RA_OF_ASC_NODE":270.926,"ARG_OF_PERICENTER":213.2925,"MEAN_ANOMALY":146.8165,"EPHEMERIS_TYPE":0,"NORAD_CAT_ID":62651,"ELEMENT_SET_NO":999,"REV_AT_EPOCH":8206,"BSTAR":0.0008402851,"MEAN_MOTION_DOT":0.00026346,"MEAN_MOTION_DDOT":0},{"OBJECT_NAME":"FLOCK 4G-31","OBJECT_ID":"2025-009AV","EPOCH":"2026-07-08T11:35:38.090400","CLASSIFICATION_TYPE":"U","MEAN_MOTION":15.29491863,"ECCENTRICITY":0.000128,"INCLINATION":97.3963,"RA_OF_ASC_NODE":270.9395,"ARG_OF_PERICENTER":169.0022,"MEAN_ANOMALY":191.1246,"EPHEMERIS_TYPE":0,"NORAD_CAT_ID":62652,"ELEMENT_SET_NO":999,"REV_AT_EPOCH":8216,"BSTAR":0.00024745,"MEAN_MOTION_DOT":0.00006999,"MEAN_MOTION_DDOT":0},{"OBJECT_NAME":"FLOCK 4G-4","OBJECT_ID":"2025-009BC","EPOCH":"2026-07-08T11:11:28.225824","CLASSIFICATION_TYPE":"U","MEAN_MOTION":15.31819968,"ECCENTRICITY":0.0004107,"INCLINATION":97.3942,"RA_OF_ASC_NODE":270.7116,"ARG_OF_PERICENTER":211.3503,"MEAN_ANOMALY":148.7495,"EPHEMERIS_TYPE":0,"NORAD_CAT_ID":62659,"ELEMENT_SET_NO":999,"REV_AT_EPOCH":13976,"BSTAR":0.00077392,"MEAN_MOTION_DOT":0.00023752,"MEAN_MOTION_DDOT":0},{"OBJECT_NAME":"FLOCK 4G-6","OBJECT_ID":"2025-009BD","EPOCH":"2026-07-08T11:22:33.999168","CLASSIFICATION_TYPE":"U","MEAN_MOTION":15.29891671,"ECCENTRICITY":0.0002279,"INCLINATION":97.3935,"RA_OF_ASC_NODE":270.7805,"ARG_OF_PERICENTER":229.8803,"MEAN_ANOMALY":130.2238,"EPHEMERIS_TYPE":0,"NORAD_CAT_ID":62660,"ELEMENT_SET_NO":999,"REV_AT_EPOCH":13975,"BSTAR":0.00019436,"MEAN_MOTION_DOT":0.00005549,"MEAN_MOTION_DDOT":0},{"OBJECT_NAME":"FLOCK 4G-2","OBJECT_ID":"2025-009BE","EPOCH":"2026-07-08T12:49:42.214368","CLASSIFICATION_TYPE":"U","MEAN_MOTION":15.30238576,"ECCENTRICITY":0.0003115,"INCLINATION":97.4003,"RA_OF_ASC_NODE":271.4734,"ARG_OF_PERICENTER":228.6652,"MEAN_ANOMALY":131.4321,"EPHEMERIS_TYPE":0,"NORAD_CAT_ID":62661,"ELEMENT_SET_NO":999,"REV_AT_EPOCH":13979,"BSTAR":0.00026066,"MEAN_MOTION_DOT":0.0000755,"MEAN_MOTION_DDOT":0},{"OBJECT_NAME":"FLOCK 4G-5","OBJECT_ID":"2025-009BG","EPOCH":"2026-07-08T12:46:01.936704","CLASSIFICATION_TYPE":"U","MEAN_MOTION":15.30825212,"ECCENTRICITY":0.0002841,"INCLINATION":97.4021,"RA_OF_ASC_NODE":271.8635,"ARG_OF_PERICENTER":204.5887,"MEAN_ANOMALY":155.5219,"EPHEMERIS_TYPE":0,"NORAD_CAT_ID":62663,"ELEMENT_SET_NO":999,"REV_AT_EPOCH":8220,"BSTAR":0.0002158,"MEAN_MOTION_DOT":0.00006351,"MEAN_MOTION_DDOT":0},{"OBJECT_NAME":"FLOCK 4G-1","OBJECT_ID":"2025-009BK","EPOCH":"2026-07-07T17:37:00.014016","CLASSIFICATION_TYPE":"U","MEAN_MOTION":15.30085707,"ECCENTRICITY":0.0003286,"INCLINATION":97.4015,"RA_OF_ASC_NODE":270.6552,"ARG_OF_PERICENTER":229.0976,"MEAN_ANOMALY":130.998,"EPHEMERIS_TYPE":0,"NORAD_CAT_ID":62666,"ELEMENT_SET_NO":999,"REV_AT_EPOCH":8205,"BSTAR":0.00023859,"MEAN_MOTION_DOT":0.00006871,"MEAN_MOTION_DDOT":0},{"OBJECT_NAME":"FLOCK 4G-14","OBJECT_ID":"2025-009BL","EPOCH":"2026-07-08T05:18:00.908640","CLASSIFICATION_TYPE":"U","MEAN_MOTION":15.29639869,"ECCENTRICITY":0.000345,"INCLINATION":97.4017,"RA_OF_ASC_NODE":270.9413,"ARG_OF_PERICENTER":221.1323,"MEAN_ANOMALY":138.9657,"EPHEMERIS_TYPE":0,"NORAD_CAT_ID":62667,"ELEMENT_SET_NO":999,"REV_AT_EPOCH":8211,"BSTAR":0.00022897,"MEAN_MOTION_DOT":0.000065,"MEAN_MOTION_DDOT":0},{"OBJECT_NAME":"FLOCK 4G-10","OBJECT_ID":"2025-009BP","EPOCH":"2026-07-08T11:51:10.302336","CLASSIFICATION_TYPE":"U","MEAN_MOTION":15.29742756,"ECCENTRICITY":0.00031,"INCLINATION":97.3917,"RA_OF_ASC_NODE":270.5187,"ARG_OF_PERICENTER":242.4476,"MEAN_ANOMALY":117.645,"EPHEMERIS_TYPE":0,"NORAD_CAT_ID":62670,"ELEMENT_SET_NO":999,"REV_AT_EPOCH":13979,"BSTAR":0.00026619,"MEAN_MOTION_DOT":0.00007595,"MEAN_MOTION_DDOT":0},{"OBJECT_NAME":"FLOCK 4G-36","OBJECT_ID":"2025-009BU","EPOCH":"2026-07-08T03:52:08.183712","CLASSIFICATION_TYPE":"U","MEAN_MOTION":15.29710286,"ECCENTRICITY":0.0003578,"INCLINATION":97.4006,"RA_OF_ASC_NODE":270.8039,"ARG_OF_PERICENTER":228.9613,"MEAN_ANOMALY":131.1319,"EPHEMERIS_TYPE":0,"NORAD_CAT_ID":62675,"ELEMENT_SET_NO":999,"REV_AT_EPOCH":8210,"BSTAR":0.00024088,"MEAN_MOTION_DOT":0.00006858,"MEAN_MOTION_DDOT":0},{"OBJECT_NAME":"FLOCK 4G-15","OBJECT_ID":"2025-009BX","EPOCH":"2026-07-08T11:53:40.176960","CLASSIFICATION_TYPE":"U","MEAN_MOTION":15.2980685,"ECCENTRICITY":0.0003896,"INCLINATION":97.4011,"RA_OF_ASC_NODE":271.2783,"ARG_OF_PERICENTER":223.2943,"MEAN_ANOMALY":136.7991,"EPHEMERIS_TYPE":0,"NORAD_CAT_ID":62678,"ELEMENT_SET_NO":999,"REV_AT_EPOCH":13980,"BSTAR":0.00028609,"MEAN_MOTION_DOT":0.00008185,"MEAN_MOTION_DDOT":0},{"OBJECT_NAME":"FLOCK 4G-30","OBJECT_ID":"2025-009BY","EPOCH":"2026-07-08T10:56:46.220064","CLASSIFICATION_TYPE":"U","MEAN_MOTION":15.33591036,"ECCENTRICITY":0.0003722,"INCLINATION":97.3912,"RA_OF_ASC_NODE":270.7302,"ARG_OF_PERICENTER":218.7502,"MEAN_ANOMALY":141.3474,"EPHEMERIS_TYPE":0,"NORAD_CAT_ID":62679,"ELEMENT_SET_NO":999,"REV_AT_EPOCH":13980,"BSTAR":0.00087727,"MEAN_MOTION_DOT":0.00028488,"MEAN_MOTION_DDOT":0},{"OBJECT_NAME":"FLOCK 4G-18","OBJECT_ID":"2025-009BZ","EPOCH":"2026-07-08T11:06:31.194720","CLASSIFICATION_TYPE":"U","MEAN_MOTION":15.31869046,"ECCENTRICITY":0.000548,"INCLINATION":97.4005,"RA_OF_ASC_NODE":271.1416,"ARG_OF_PERICENTER":233.8999,"MEAN_ANOMALY":126.1735,"EPHEMERIS_TYPE":0,"NORAD_CAT_ID":62680,"ELEMENT_SET_NO":999,"REV_AT_EPOCH":13979,"BSTAR":0.00081749,"MEAN_MOTION_DOT":0.00025141,"MEAN_MOTION_DDOT":0}]}
